{"type": "FeatureCollection", "features": [ {"type": "Feature", "properties": {"norad_id": 44476, "name": "INTELSAT 39 (IS-39)", "group": "intelsat", "lat": -0.03467098664949007, "lon": -168.07613856396142, "alt_km": 35783.69122087083, "timestamp": "2025-12-01T03:58:49.229922+00:00", "meta": {"OBJECT_NAME": "INTELSAT 39 (IS-39)", "OBJECT_ID": "2019-049B", "EPOCH": "2025-11-30T19:16:31.791936", "MEAN_MOTION": 1.00270438, "ECCENTRICITY": 9.24e-05, "INCLINATION": 0.0162, "RA_OF_ASC_NODE": 302.2488, "ARG_OF_PERICENTER": 204.8802, "MEAN_ANOMALY": 273.8892, "EPHEMERIS_TYPE": 0, "CLASSIFICATION_TYPE": "U", "NORAD_CAT_ID": 44476, "ELEMENT_SET_NO": 999, "REV_AT_EPOCH": 2313, "BSTAR": 0, "MEAN_MOTION_DOT": 5.5e-07, "MEAN_MOTION_DDOT": 0, "GROUP": "intelsat"}, "tle": {"line1": "1 44476U 19049B   25334.80314574  .00000055  00000+0  00000+0 0  9995", "line2": "2 44476   0.0162 302.2488 0000924 204.8802 273.8892  1.00270438 23135"}}, "geometry": {"type": "Point", "coordinates": [-168.07613856396142, -0.03467098664949007]}}, {"type": "Feature", "properties": {"norad_id": 54026, "name": "GALAXY 33 (G-33)", "group": "intelsat", "lat": 0.01947195500535038, "lon": -3.0122526368412035, "alt_km": 35789.12146001438, "timestamp": "2025-12-01T03:58:49.230275+00:00", "meta": {"OBJECT_NAME": "GALAXY 33 (G-33)", "OBJECT_ID": "2022-128A", "EPOCH": "2025-11-30T16:38:05.516160", "MEAN_MOTION": 1.00271956, "ECCENTRICITY": 0.0001849, "INCLINATION": 0.0133, "RA_OF_ASC_NODE": 330.1836, "ARG_OF_PERICENTER": 273.2072, "MEAN_ANOMALY": 302.9591, "EPHEMERIS_TYPE": 0, "CLASSIFICATION_TYPE": "U", "NORAD_CAT_ID": 54026, "ELEMENT_SET_NO": 999, "REV_AT_EPOCH": 1175, "BSTAR": 0, "MEAN_MOTION_DOT": 1e-06, "MEAN_MOTION_DDOT": 0, "GROUP": "intelsat"}, "tle": {"line1": "1 54026U 22128A   25334.69311940  .00000100  00000+0  00000+0 0  9991", "line2": "2 54026   0.0133 330.1836 0001849 273.2072 302.9591  1.00271956 11759"}}, "geometry": {"type": "Point", "coordinates": [-3.0122526368412035, 0.01947195500535038]}}, {"type": "Feature", "properties": {"norad_id": 54027, "name": "GALAXY 34 (G-34)", "group": "intelsat", "lat": 0.030553137538914938, "lon": 0.9601388935949973, "alt_km": 35791.18581792175, "timestamp": "2025-12-01T03:58:49.230289+00:00", "meta": {"OBJECT_NAME": "GALAXY 34 (G-34)", "OBJECT_ID": "2022-128B", "EPOCH": "2025-11-30T16:39:12.908160", "MEAN_MOTION": 1.00266938, "ECCENTRICITY": 0.0001436, "INCLINATION": 0.0172, "RA_OF_ASC_NODE": 308.9346, "ARG_OF_PERICENTER": 283.4057, "MEAN_ANOMALY": 318.2787, "EPHEMERIS_TYPE": 0, "CLASSIFICATION_TYPE": "U", "NORAD_CAT_ID": 54027, "ELEMENT_SET_NO": 999, "REV_AT_EPOCH": 1192, "BSTAR": 0, "MEAN_MOTION_DOT": 8.1e-07, "MEAN_MOTION_DDOT": 0, "GROUP": "intelsat"}, "tle": {"line1": "1 54027U 22128B   25334.69389940  .00000081  00000+0  00000+0 0  9995", "line2": "2 54027   0.0172 308.9346 0001436 283.4057 318.2787  1.00266938 11920"}}, "geometry": {"type": "Point", "coordinates": [0.9601388935949973, 0.030553137538914938]}}, {"type": "Feature", "properties": {"norad_id": 54243, "name": "GALAXY 31 (G-31)", "group": "intelsat", "lat": 0.03235178796642873, "lon": 8.960166278965556, "alt_km": 35788.49132799157, "timestamp": "2025-12-01T03:58:49.230319+00:00", "meta": {"OBJECT_NAME": "GALAXY 31 (G-31)", "OBJECT_ID": "2022-153A", "EPOCH": "2025-11-30T16:41:35.181312", "MEAN_MOTION": 1.00270788, "ECCENTRICITY": 0.0001986, "INCLINATION": 0.0144, "RA_OF_ASC_NODE": 299.7044, "ARG_OF_PERICENTER": 324.5164, "MEAN_ANOMALY": 294.977, "EPHEMERIS_TYPE": 0, "CLASSIFICATION_TYPE": "U", "NORAD_CAT_ID": 54243, "ELEMENT_SET_NO": 999, "REV_AT_EPOCH": 514, "BSTAR": 0, "MEAN_MOTION_DOT": 0, "MEAN_MOTION_DDOT": 0, "GROUP": "intelsat"}, "tle": {"line1": "1 54243U 22153A   25334.69554608  .00000000  00000+0  00000+0 0  9999", "line2": "2 54243   0.0144 299.7044 0001986 324.5164 294.9770  1.00270788  5144"}}, "geometry": {"type": "Point", "coordinates": [8.960166278965556, 0.03235178796642873]}}, {"type": "Feature", "properties": {"norad_id": 54244, "name": "GALAXY 32 (G-32)", "group": "intelsat", "lat": 0.03276388425597539, "lon": 38.998155686083514, "alt_km": 35787.19392259896, "timestamp": "2025-12-01T03:58:49.230331+00:00", "meta": {"OBJECT_NAME": "GALAXY 32 (G-32)", "OBJECT_ID": "2022-153B", "EPOCH": "2025-11-30T09:59:12.766272", "MEAN_MOTION": 1.00270609, "ECCENTRICITY": 0.0002253, "INCLINATION": 0.0124, "RA_OF_ASC_NODE": 312.3087, "ARG_OF_PERICENTER": 352.3365, "MEAN_ANOMALY": 183.7198, "EPHEMERIS_TYPE": 0, "CLASSIFICATION_TYPE": "U", "NORAD_CAT_ID": 54244, "ELEMENT_SET_NO": 999, "REV_AT_EPOCH": 1115, "BSTAR": 0, "MEAN_MOTION_DOT": -1.53e-06, "MEAN_MOTION_DDOT": 0, "GROUP": "intelsat"}, "tle": {"line1": "1 54244U 22153B   25334.41611998 -.00000153  00000+0  00000+0 0  9996", "line2": "2 54244   0.0124 312.3087 0002253 352.3365 183.7198  1.00270609 11151"}}, "geometry": {"type": "Point", "coordinates": [38.998155686083514, 0.03276388425597539]}}, {"type": "Feature", "properties": {"norad_id": 54741, "name": "GALAXY 35 (G-35)", "group": "intelsat", "lat": 0.03167744255098824, "lon": 36.89886475726949, "alt_km": 35794.81562149534, "timestamp": "2025-12-01T03:58:49.230349+00:00", "meta": {"OBJECT_NAME": "GALAXY 35 (G-35)", "OBJECT_ID": "2022-170A", "EPOCH": "2025-11-30T15:06:44.738208", "MEAN_MOTION": 1.00270709, "ECCENTRICITY": 0.0002543, "INCLINATION": 0.0154, "RA_OF_ASC_NODE": 277.5421, "ARG_OF_PERICENTER": 338.0688, "MEAN_ANOMALY": 307.7548, "EPHEMERIS_TYPE": 0, "CLASSIFICATION_TYPE": "U", "NORAD_CAT_ID": 54741, "ELEMENT_SET_NO": 999, "REV_AT_EPOCH": 1090, "BSTAR": 0, "MEAN_MOTION_DOT": -1.41e-06, "MEAN_MOTION_DDOT": 0, "GROUP": "intelsat"}, "tle": {"line1": "1 54741U 22170A   25334.62968447 -.00000141  00000+0  00000+0 0  9991", "line2": "2 54741   0.0154 277.5421 0002543 338.0688 307.7548  1.00270709 10901"}}, "geometry": {"type": "Point", "coordinates": [36.89886475726949, 0.03167744255098824]}}, {"type": "Feature", "properties": {"norad_id": 54742, "name": "GALAXY 36 (G-36)", "group": "intelsat", "lat": 0.012574100258276648, "lon": 40.97612293283189, "alt_km": 35788.375138440744, "timestamp": "2025-12-01T03:58:49.230361+00:00", "meta": {"OBJECT_NAME": "GALAXY 36 (G-36)", "OBJECT_ID": "2022-170B", "EPOCH": "2025-11-30T18:33:09.494784", "MEAN_MOTION": 1.00271264, "ECCENTRICITY": 5.25e-05, "INCLINATION": 0.0346, "RA_OF_ASC_NODE": 138.0636, "ARG_OF_PERICENTER": 100.0511, "MEAN_ANOMALY": 21.0878, "EPHEMERIS_TYPE": 0, "CLASSIFICATION_TYPE": "U", "NORAD_CAT_ID": 54742, "ELEMENT_SET_NO": 999, "REV_AT_EPOCH": 1078, "BSTAR": 0, "MEAN_MOTION_DOT": -1.63e-06, "MEAN_MOTION_DDOT": 0, "GROUP": "intelsat"}, "tle": {"line1": "1 54742U 22170B   25334.77302656 -.00000163  00000+0  00000+0 0  9996", "line2": "2 54742   0.0346 138.0636 0000525 100.0511  21.0878  1.00271264 10789"}}, "geometry": {"type": "Point", "coordinates": [40.97612293283189, 0.012574100258276648]}}, {"type": "Feature", "properties": {"norad_id": 57493, "name": "GALAXY 37 (G-37)", "group": "intelsat", "lat": 0.003918361785874019, "lon": 2.99418167334981, "alt_km": 35788.95022008866, "timestamp": "2025-12-01T03:58:49.230531+00:00", "meta": {"OBJECT_NAME": "GALAXY 37 (G-37)", "OBJECT_ID": "2023-112A", "EPOCH": "2025-11-30T16:39:35.372160", "MEAN_MOTION": 1.00272002, "ECCENTRICITY": 0.0002276, "INCLINATION": 0.0221, "RA_OF_ASC_NODE": 44.6985, "ARG_OF_PERICENTER": 210.4627, "MEAN_ANOMALY": 297.565, "EPHEMERIS_TYPE": 0, "CLASSIFICATION_TYPE": "U", "NORAD_CAT_ID": 57493, "ELEMENT_SET_NO": 999, "REV_AT_EPOCH": 855, "BSTAR": 0, "MEAN_MOTION_DOT": 7e-07, "MEAN_MOTION_DDOT": 0, "GROUP": "intelsat"}, "tle": {"line1": "1 57493U 23112A   25334.69415940  .00000070  00000+0  00000+0 0  9997", "line2": "2 57493   0.0221  44.6985 0002276 210.4627 297.5650  1.00272002  8556"}}, "geometry": {"type": "Point", "coordinates": [2.99418167334981, 0.003918361785874019]}}]}